[{"OBJECT_NAME":"STARLINK-2526","OBJECT_ID":"2021-038AB","EPOCH":"2026-03-09T22:41:23.494848","MEAN_MOTION":15.30187905,"ECCENTRICITY":0.00013052,"INCLINATION":53.1612,"RA_OF_ASC_NODE":346.6542,"ARG_OF_PERICENTER":99.1282,"MEAN_ANOMALY":260.9866,"EPHEMERIS_TYPE":0,"CLASSIFICATION_TYPE":"U","NORAD_CAT_ID":48378,"ELEMENT_SET_NO":999,"REV_AT_EPOCH":26726,"BSTAR":-4.3294809e-5,"MEAN_MOTION_DOT":-1.641e-5,"MEAN_MOTION_DDOT":0},{"OBJECT_NAME":"OBJECT K","OBJECT_ID":"2024-092K","EPOCH":"2026-03-09T22:27:09.905184","MEAN_MOTION":15.32834875,"ECCENTRICITY":0.00087198,"INCLINATION":97.6413,"RA_OF_ASC_NODE":198.1023,"ARG_OF_PERICENTER":142.4952,"MEAN_ANOMALY":217.69,"EPHEMERIS_TYPE":0,"CLASSIFICATION_TYPE":"U","NORAD_CAT_ID":59809,"ELEMENT_SET_NO":999,"REV_AT_EPOCH":10001,"BSTAR":0.0007267688,"MEAN_MOTION_DOT":0.00023035,"MEAN_MOTION_DDOT":0}]
